{
  "type": "FeatureCollection",
  "features": [
    {
      "type": "Feature",
      "properties": {
        "norad_id": 34815,
        "name": "COSMOS 2251 DEB",
        "group": "cosmos-2251-debris",
        "lat": -71.81125301111537,
        "lon": 103.83373697982132,
        "alt_km": 605.2341657243351,
        "timestamp": "2025-12-22T04:03:39.563685+00:00",
        "meta_object_name": "COSMOS 2251 DEB",
        "meta_object_id": "1993-036ABE",
        "meta_epoch": "2025-12-21T18:45:31.868640",
        "meta_mean_motion": 14.78405815,
        "meta_eccentricity": 0.0058816,
        "meta_inclination": 74.044,
        "meta_ra_of_asc_node": 224.0458,
        "meta_arg_of_pericenter": 291.2324,
        "meta_mean_anomaly": 68.2575,
        "meta_ephemeris_type": 0,
        "meta_classification_type": "U",
        "meta_norad_cat_id": 34815,
        "meta_element_set_no": 999,
        "meta_rev_at_epoch": 88761,
        "meta_bstar": 0.00055532,
        "meta_mean_motion_dot": 4.13e-05,
        "meta_mean_motion_ddot": 0,
        "tle_line1": "1 34815U 93036ABE 25355.78161885  .00004130  00000+0  55532-3 0  9996",
        "tle_line2": "2 34815  74.0440 224.0458 0058816 291.2324  68.2575 14.78405815887614"
      },
      "geometry": {
        "type": "Point",
        "coordinates": [
          103.83373697982132,
          -71.81125301111537
        ]
      }
    },
    {
      "type": "Feature",
      "properties": {
        "norad_id": 34816,
        "name": "COSMOS 2251 DEB",
        "group": "cosmos-2251-debris",
        "lat": 72.03024950656072,
        "lon": -115.29148142816383,
        "alt_km": 1036.397243154678,
        "timestamp": "2025-12-22T04:03:39.563694+00:00",
        "meta_object_name": "COSMOS 2251 DEB",
        "meta_object_id": "1993-036ABF",
        "meta_epoch": "2025-12-21T19:28:23.587104",
        "meta_mean_motion": 13.58347113,
        "meta_eccentricity": 0.0373116,
        "meta_inclination": 73.8869,
        "meta_ra_of_asc_node": 128.3199,
        "meta_arg_of_pericenter": 191.2258,
        "meta_mean_anomaly": 321.9512,
        "meta_ephemeris_type": 0,
        "meta_classification_type": "U",
        "meta_norad_cat_id": 34816,
        "meta_element_set_no": 999,
        "meta_rev_at_epoch": 82906,
        "meta_bstar": 0.001115,
        "meta_mean_motion_dot": 1.255e-05,
        "meta_mean_motion_ddot": 0,
        "tle_line1": "1 34816U 93036ABF 25355.81138411  .00001255  00000+0  11150-2 0  9992",
        "tle_line2": "2 34816  73.8869 128.3199 0373116 191.2258 321.9512 13.58347113829061"
      },
      "geometry": {
        "type": "Point",
        "coordinates": [
          -115.29148142816383,
          72.03024950656072
        ]
      }
    },
    {
      "type": "Feature",
      "properties": {
        "norad_id": 34818,
        "name": "COSMOS 2251 DEB",
        "group": "cosmos-2251-debris",
        "lat": -32.28433635195765,
        "lon": 110.02090848184088,
        "alt_km": 787.5910526836797,
        "timestamp": "2025-12-22T04:03:39.563704+00:00",
        "meta_object_name": "COSMOS 2251 DEB",
        "meta_object_id": "1993-036ABH",
        "meta_epoch": "2025-12-21T06:03:22.029120",
        "meta_mean_motion": 14.36976578,
        "meta_eccentricity": 0.0024585,
        "meta_inclination": 74.0362,
        "meta_ra_of_asc_node": 281.2869,
        "meta_arg_of_pericenter": 355.1217,
        "meta_mean_anomaly": 157.5455,
        "meta_ephemeris_type": 0,
        "meta_classification_type": "U",
        "meta_norad_cat_id": 34818,
        "meta_element_set_no": 999,
        "meta_rev_at_epoch": 87492,
        "meta_bstar": 0.00016074,
        "meta_mean_motion_dot": 4.52e-06,
        "meta_mean_motion_ddot": 0,
        "tle_line1": "1 34818U 93036ABH 25355.25233830  .00000452  00000+0  16074-3 0  9992",
        "tle_line2": "2 34818  74.0362 281.2869 0024585 355.1217 157.5455 14.36976578874920"
      },
      "geometry": {
        "type": "Point",
        "coordinates": [
          110.02090848184088,
          -32.28433635195765
        ]
      }
    },
    {
      "type": "Feature",
      "properties": {
        "norad_id": 34819,
        "name": "COSMOS 2251 DEB",
        "group": "cosmos-2251-debris",
        "lat": -29.10838366514242,
        "lon": 115.34915184296193,
        "alt_km": 689.3908132439201,
        "timestamp": "2025-12-22T04:03:39.563715+00:00",
        "meta_object_name": "COSMOS 2251 DEB",
        "meta_object_id": "1993-036ABJ",
        "meta_epoch": "2025-12-20T09:50:49.162272",
        "meta_mean_motion": 14.64072467,
        "meta_eccentricity": 0.00155371,
        "meta_inclination": 74.018,
        "meta_ra_of_asc_node": 127.9117,
        "meta_arg_of_pericenter": 222.8872,
        "meta_mean_anomaly": 199.7592,
        "meta_ephemeris_type": 0,
        "meta_classification_type": "U",
        "meta_norad_cat_id": 34819,
        "meta_element_set_no": 999,
        "meta_rev_at_epoch": 88341,
        "meta_bstar": 0.001010903,
        "meta_mean_motion_dot": 5.289e-05,
        "meta_mean_motion_ddot": 0,
        "tle_line1": "1 34819U 93036ABJ 25354.41029123  .00005289  00000+0  10109-2 0  9993",
        "tle_line2": "2 34819  74.0180 127.9117 0015537 222.8872 199.7592 14.64072467883414"
      },
      "geometry": {
        "type": "Point",
        "coordinates": [
          115.34915184296193,
          -29.10838366514242
        ]
      }
    },
    {
      "type": "Feature",
      "properties": {
        "norad_id": 34823,
        "name": "COSMOS 2251 DEB",
        "group": "cosmos-2251-debris",
        "lat": 62.34004364029079,
        "lon": 117.51895544747377,
        "alt_km": 719.7681797802916,
        "timestamp": "2025-12-22T04:03:39.563725+00:00",
        "meta_object_name": "COSMOS 2251 DEB",
        "meta_object_id": "1993-036ABN",
        "meta_epoch": "2025-12-20T12:08:33.613440",
        "meta_mean_motion": 14.5497594,
        "meta_eccentricity": 0.01541862,
        "meta_inclination": 74.0426,
        "meta_ra_of_asc_node": 87.5785,
        "meta_arg_of_pericenter": 170.4185,
        "meta_mean_anomaly": 189.9981,
        "meta_ephemeris_type": 0,
        "meta_classification_type": "U",
        "meta_norad_cat_id": 34823,
        "meta_element_set_no": 999,
        "meta_rev_at_epoch": 88494,
        "meta_bstar": 0.00040573854,
        "meta_mean_motion_dot": 2.017e-05,
        "meta_mean_motion_ddot": 0,
        "tle_line1": "1 34823U 93036ABN 25354.50594460  .00002017  00000+0  40574-3 0  9995",
        "tle_line2": "2 34823  74.0426  87.5785 0154186 170.4185 189.9981 14.54975940884942"
      },
      "geometry": {
        "type": "Point",
        "coordinates": [
          117.51895544747377,
          62.34004364029079
        ]
      }
    },
    {
      "type": "Feature",
      "properties": {
        "norad_id": 34845,
        "name": "COSMOS 2251 DEB",
        "group": "cosmos-2251-debris",
        "lat": 73.97462191237605,
        "lon": -143.4003142820268,
        "alt_km": 746.7254012345184,
        "timestamp": "2025-12-22T04:03:39.563735+00:00",
        "meta_object_name": "COSMOS 2251 DEB",
        "meta_object_id": "1993-036ABP",
        "meta_epoch": "2025-12-19T17:31:51.884832",
        "meta_mean_motion": 14.45872035,
        "meta_eccentricity": 0.00225932,
        "meta_inclination": 74.0244,
        "meta_ra_of_asc_node": 135.3011,
        "meta_arg_of_pericenter": 295.1391,
        "meta_mean_anomaly": 64.7423,
        "meta_ephemeris_type": 0,
        "meta_classification_type": "U",
        "meta_norad_cat_id": 34845,
        "meta_element_set_no": 999,
        "meta_rev_at_epoch": 87567,
        "meta_bstar": 0.00020260782,
        "meta_mean_motion_dot": 6.95e-06,
        "meta_mean_motion_ddot": 0,
        "tle_line1": "1 34845U 93036ABP 25353.73046163  .00000695  00000+0  20261-3 0  9996",
        "tle_line2": "2 34845  74.0244 135.3011 0022593 295.1391  64.7423 14.45872035875670"
      },
      "geometry": {
        "type": "Point",
        "coordinates": [
          -143.4003142820268,
          73.97462191237605
        ]
      }
    },
    {
      "type": "Feature",
      "properties": {
        "norad_id": 34846,
        "name": "COSMOS 2251 DEB",
        "group": "cosmos-2251-debris",
        "lat": 68.06052221349516,
        "lon": -70.54809106477423,
        "alt_km": 738.4316957743404,
        "timestamp": "2025-12-22T04:03:39.563745+00:00",
        "meta_object_name": "COSMOS 2251 DEB",
        "meta_object_id": "1993-036ABQ",
        "meta_epoch": "2025-12-21T11:07:37.718400",
        "meta_mean_motion": 14.47259356,
        "meta_eccentricity": 0.00262187,
        "meta_inclination": 74.0304,
        "meta_ra_of_asc_node": 245.4609,
        "meta_arg_of_pericenter": 310.7741,
        "meta_mean_anomaly": 49.1142,
        "meta_ephemeris_type": 0,
        "meta_classification_type": "U",
        "meta_norad_cat_id": 34846,
        "meta_element_set_no": 999,
        "meta_rev_at_epoch": 87530,
        "meta_bstar": 0.0005506376,
        "meta_mean_motion_dot": 1.995e-05,
        "meta_mean_motion_ddot": 0,
        "tle_line1": "1 34846U 93036ABQ 25355.46363100  .00001995  00000+0  55064-3 0  9995",
        "tle_line2": "2 34846  74.0304 245.4609 0026218 310.7741  49.1142 14.47259356875307"
      },
      "geometry": {
        "type": "Point",
        "coordinates": [
          -70.54809106477423,
          68.06052221349516
        ]
      }
    }
  ]
}